ASTRA 2E                
1 39285U 13056A   22137.51306230  .00000156  00000+0  00000+0 0  9997
2 39285   0.0680 331.6402 0002269  66.0279  50.6989  1.00269428 31486
FM-6                    
1 39360U 13058A   22137.52060375 -.00000010  00000+0  00000+0 0  9991
2 39360   0.0278 292.5105 0000734 337.6694  36.2748  1.00269077 31103
RADUGA-1M 3             
1 39375U 13062A   22137.51437058  .00000162  00000+0  00000+0 0  9994
2 39375   2.1534  90.1555 0004079 130.1059 235.0912  1.00271344 31174
SES-8                   
1 39460U 13071A   22137.45456883 -.00000263  00000+0  00000+0 0  9992
2 39460   0.0124 254.9185 0002873 173.8045  65.0678  1.00270620 29475
INMARSAT 5-F1           
1 39476U 13073A   22136.94583587  .00000036  00000+0  00000+0 0  9993
2 39476   0.0162 332.1484 0000129 162.8497 142.7479  1.00271122 30625
TKSAT-1 (TUPAC KATARI)  
1 39481U 13075A   22137.49003670 -.00000188  00000+0  00000+0 0  9991
2 39481   0.0442 100.2691 0002888 296.0616 288.0598  1.00272229 30639
EXPRESS-AM5             
1 39487U 13077A   22137.10123758 -.00000273  00000+0  00000+0 0  9992
2 39487   0.0100 166.7826 0001019 182.6995  61.7800  1.00270115 31396
GSAT-14                 
1 39498U 14001A   22137.37860837 -.00000071  00000+0  00000+0 0  9993
2 39498   0.0472 120.9385 0001718 171.6566 152.7652  1.00271066 30436
THAICOM 6               
1 39500U 14002A   22137.45125455 -.00000115  00000+0  00000+0 0  9996
2 39500   0.0898 111.2169 0003926 345.2398  19.6218  1.00270733 30507
TDRS 12                 
1 39504U 14004A   22137.49919461 -.00000267  00000+0  00000+0 0  9992
2 39504   3.8872 346.7688 0004563 104.7770 282.4489  1.00274492 29329
ABS-2                   
1 39508U 14006A   22137.45055679 -.00000080  00000+0  00000+0 0  9999
2 39508   0.0340  32.7891 0004321   8.6268  70.8313  1.00271244 30336
ATHENA-FIDUS            
1 39509U 14006B   22137.51489389  .00000160  00000+0  00000+0 0  9994
2 39509   0.0072  45.9631 0001676  18.6908  33.6963  1.00272566 30122
TURKSAT 4A              
1 39522U 14007A   22137.51576606  .00000152  00000+0  00000+0 0  9990
2 39522   0.0144 276.4603 0001427  88.0687  98.3398  1.00270036 30036
EXPRESS-AT1             
1 39612U 14010A   22135.60294492  .00000089  00000+0  00000+0 0  9991
2 39612   0.0110 269.3682 0001241 217.5235  19.5021  1.00274239 30070
EXPRESS-AT2             
1 39613U 14010B   22137.46355230 -.00000275  00000+0  00000+0 0  9994
2 39613   0.0125 303.6899 0001013 147.2605  90.9161  1.00270769 29920
AMAZONAS 4A             
1 39616U 14011A   22137.49265324 -.00000246  00000+0  00000+0 0  9993
2 39616   0.0123 295.6293 0003082 168.4129 234.4871  1.00270034 29741
ASTRA 5B                
1 39617U 14011B   22137.51367284  .00000161  00000+0  00000+0 0  9990
2 39617   0.0541 312.0395 0003767 110.1717  29.4111  1.00270862 29715
IRNSS-1B                
1 39635U 14017A   22135.93452125  .00000089  00000+0  00000+0 0  9998
2 39635  28.8091 265.6489 0022432 182.1290 177.2774  1.00272022 29813
LUCH 5V                 
1 39727U 14023A   22137.45448161 -.00000263  00000+0  00000+0 0  9996
2 39727   1.4263  74.8784 0003642  16.5364  42.0297  1.00274644 29401
KAZSAT-3                
1 39728U 14023B   22137.44732972  .00000067  00000+0  00000+0 0  9993
2 39728   0.0110 335.9002 0000425 194.7580 284.0203  1.00270328 27494
EUTELSAT 3B             
1 39773U 14030A   22136.86220448  .00000028  00000+0  00000+0 0  9993
2 39773   0.0713  26.6085 0004611 119.8792  41.5597  1.00272323 29101
ASIASAT 8 (AMOS-7)      
1 40107U 14046A   22137.29133104 -.00000026  00000+0  00000+0 0  9992
2 40107   0.0623 109.5668 0002111 317.6723 268.7303  1.00271273 87180
ASIASAT 6               
1 40141U 14052A   22137.45954027 -.00000356  00000+0  00000+0 0  9996
2 40141   0.0031 322.2087 0000924  70.8898 127.3947  1.00271276 28206
OPTUS 10                
1 40146U 14054A   22137.30378209 -.00000140  00000+0  00000+0 0  9990
2 40146   0.0140 228.1913 0002704 206.7676  65.3822  1.00270750 28070
MEASAT-3B               
1 40147U 14054B   22137.45387109 -.00000236  00000+0  00000+0 0  9992
2 40147   0.0553  63.4708 0003264 342.7397  83.8292  1.00272518 27950
LUCH (OLYMP)            
1 40258U 14058A   22137.44794024  .00000040  00000+0  00000+0 0  9998
2 40258   0.0654  99.9994 0000856  37.0508 321.2428  1.00272363 26034
HIMAWARI-8              
1 40267U 14060A   22137.17661177 -.00000269  00000+0  00000+0 0  9997
2 40267   0.0650 107.8499 0001087 357.5929 333.6470  1.00269637 27791
IRNSS-1C                
1 40269U 14061A   22137.45221394 -.00000154  00000+0  00000+0 0  9997
2 40269   2.8964 130.1132 0019604   5.5951 345.2503  1.00273474 27726
INTELSAT 30 (IS-30)     
1 40271U 14062A   22136.56191848 -.00000139  00000+0  00000+0 0  9995
2 40271   0.0137 300.0225 0001064 122.5553 278.9061  1.00258007 27615
ARSAT 1                 
1 40272U 14062B   22137.49308934 -.00000253  00000+0  00000+0 0  9992
2 40272   0.0693  95.0312 0001828 322.7810 283.0759  1.00270975 27652
EXPRESS-AM6             
1 40277U 14064A   22137.51794653  .00000104  00000+0  00000+0 0  9993
2 40277   0.0093 283.2031 0000488 248.7773 302.6675  1.00271340 27715
GSAT-16                 
1 40332U 14078A   22137.51820819  .00000090  00000+0  00000+0 0  9998
2 40332   0.0301 275.8367 0007591 161.9507  39.0549  1.00272983 27154
DIRECTV 14              
1 40333U 14078B   22137.54085799 -.00000119  00000+0  00000+0 0  9995
2 40333   0.0598  97.5108 0000727  21.7152 211.4650  1.00270023 27105
YAMAL 401               
1 40345U 14082A   22137.45352221 -.00000222  00000+0  00000+0 0  9995
2 40345   0.0141 321.7153 0000328 101.3929  65.2408  1.00270296 26969
ASTRA 2G                
1 40364U 14089A   22137.51297510  .00000156  00000+0  00000+0 0  9994
2 40364   0.0509  53.3076 0005259   1.8786  32.8730  1.00270663 27016
FENGYUN 2G              
1 40367U 14090A   22137.45552823 -.00000298  00000+0  00000+0 0  9991
2 40367   1.8583  89.7045 0001840 346.0423  63.1832  1.00276825 27042
MUOS-3                  
1 40374U 15002A   22136.85845410 -.00000122  00000+0  00000+0 0  9999
2 40374   2.5504  11.4952 0052555 176.3773 340.1701  1.00269949 26626
INMARSAT 5-F2           
1 40384U 15005A   22135.34215108 -.00000274  00000+0  00000+0 0  9999
2 40384   0.0180 313.4841 0000684 272.1761  75.5588  1.00251487 26697
ABS-3A                  
1 40424U 15010A   22136.19424448 -.00000016  00000+0  00000+0 0  9997
2 40424   0.0112 322.3242 0002104  11.9960 326.4969  1.00273163 26416
EUTELSAT 115 WEST B     
1 40425U 15010B   22137.52219214 -.00000019  00000+0  00000+0 0  9992
2 40425   0.0092 126.7132 0000195 122.1904  59.3794  1.00271753 26443
EXPRESS-AM7             
1 40505U 15012A   22136.86956809  .00000159  00000+0  00000+0 0  9991
2 40505   0.0236  60.4720 0003032 352.8572 174.2868  1.00273855 26045
IRNSS-1D                
1 40547U 15018A   22135.76994017 -.00000296  00000+0  00000+0 0  9997
2 40547  28.6364 265.6873 0022714 182.5827 174.2262  1.00275052 26269
BEIDOU 17               
1 40549U 15019A   22137.45395830 -.00000153  00000+0  00000+0 0  9998
2 40549  51.9401 313.1136 0036904 187.6683 348.1651  1.00250402 26126
THOR 7                  
1 40613U 15022A   22137.29194157 -.00000002  00000+0  00000+0 0  9998
2 40613   0.0046  63.4736 0002691 350.5886 285.3589  1.00270512 25856
TURKMENALEM52E/MONACOSAT
1 40617U 15023A   22136.87192299  .00000112  00000+0  00000+0 0  9992
2 40617   0.0509  99.0440 0002630 326.7428 174.6912  1.00272994 25879
DIRECTV 15              
1 40663U 15026A   22137.53748189 -.00000096  00000+0  00000+0 0  9997
2 40663   0.0508 102.8447 0000734 171.0163  51.9909  1.00267784 25503
SKY MEXICO-1            
1 40664U 15026B   22137.49169385 -.00000228  00000+0  00000+0 0  9995
2 40664   0.0111 328.4009 0002327  94.9006 270.1158  1.00270958 25499
METEOSAT-11 (MSG-4)     
1 40732U 15034A   22137.29202878  .00000000  00000+0  00000+0 0  9990
2 40732   0.2369  43.3255 0001183  56.6185 239.7714  1.00271862 25067
STAR ONE C4             
1 40733U 15034B   22135.32683506 -.00000254  00000+0  00000+0 0  9996
2 40733   0.0259 340.3975 0002775  57.9292 242.3788  1.00268463 25046
WGS F7 (USA 263)        
1 40746U 15036A   22137.18350201  .00000025  00000+0  00000+0 0  9996
2 40746   0.0143 334.5431 0000085 155.5365 345.8276  1.00271744 24914
INTELSAT 34 (IS-34)     
1 40874U 15039A   22136.29734934 -.00000275  00000+0  00000+0 0  9999
2 40874   0.0142 347.6181 0000664 143.9215 154.0068  1.00272358 24652
EUTELSAT 8 WEST B       
1 40875U 15039B   22137.36229855 -.00000059  00000+0  00000+0 0  9990
2 40875   0.0680 357.5208 0006070  58.9695 300.9804  1.00271864 24699
GSAT-6                  
1 40880U 15041A   22137.45212674 -.00000154  00000+0  00000+0 0  9996
2 40880   0.0970  93.9799 0002927 323.6529  62.7537  1.00270398 24651
INMARSAT 5-F3           
1 40882U 15042A   22137.18437420  .00000057  00000+0  00000+0 0  9998
2 40882   0.0169 328.6193 0000156 164.5418 347.6790  1.00270142 24596
MUOS-4                  
1 40887U 15044A   22137.57641184 -.00000089  00000+0  00000+0 0  9998
2 40887   2.5539   6.5740 0056897   2.0467 149.1701  1.00271002 24607
TJS-1                   
1 40892U 15046A   22137.55780840 -.00000151  00000+0  00000+0 0  9997
2 40892   0.0325 274.5258 0001696 105.4713 210.9391  1.00273345 24603
EXPRESS-AM8             
1 40895U 15048A   22136.68243741 -.00000102  00000+0  00000+0 0  9995
2 40895   0.0004   5.9691 0000509  87.4419  12.6624  1.00272459 24400
BEIDOU 20               
1 40938U 15053A   22137.25350944 -.00000139  00000+0  00000+0 0  9997
2 40938  51.5506 276.2303 0046050 193.7994 308.8867  1.00253662 24391
SKY MUSTER 1 (NBN1A)    
1 40940U 15054A   22137.46355230 -.00000272  00000+0  00000+0 0  9995
2 40940   0.0128 286.2583 0001952 130.8401 125.1824  1.00270676 24309
